
DTC TEST OBJECT A
1 69472U 26128A   26169.83847245  .00021253  00000+0  30728-3 0  9997
2 69472  54.9939 297.4006 0008615 295.5156  64.4988 15.55903712  1480

DTC TEST OBJECT B
1 69473U 26128B   26170.28588218  .00029276  00000+0  41262-3 0  9999
2 69473  55.0029 295.3169 0008695 297.7274  62.2880 15.56401637  1547

STARLINK-37384
1 69460U 26127T   26170.24461076  .00323329  00000+0  15726-2 0  9993
2 69460  53.1578 251.8558 0001750  28.2465 331.8653 15.80990554  1736

STARLINK-37449
1 69488U 26131L   26168.83335648 -.01055018  35119-3 -24339-2 0  9998
2 69488  97.2818 189.0744 0001093  79.7938 174.4151 15.97254920  2202

STARLINK-37451
1 69471U 26127AE  26170.00002315 -.02200549  00000+0 -11176-1 0  9992
2 69471  53.1580 252.7499 0000989  70.6105 135.2061 15.84194287  2935

STARLINK-37525
1 69462U 26127V   26170.23892504  .00207882  00000+0  10302-2 0  9998
2 69462  53.1586 251.8155 0001576  44.7886 315.3264 15.80901732  1731

STARLINK-37526
1 69463U 26127W   26170.23829223  .00248645  00000+0  12225-2 0  9995
2 69463  53.1600 251.8133 0001424  38.5185 321.5939 15.80958440  1736

STARLINK-37532
1 69468U 26127AB  26170.22150389 -.00840310  00000+0 -44082-2 0  9994
2 69468  53.1576 251.6979 0002625  18.6565 341.4554 15.82159434  1736

STARLINK-37535
1 69465U 26127Y   26170.23330235  .00145735  00000+0  72781-3 0  9997
2 69465  53.1589 251.7775 0001153  45.8856 314.2261 15.80923507  1733

STARLINK-37546
1 69467U 26127AA  26170.22060965 -.00866965  00000+0 -43193-2 0  9999
2 69467  53.1578 251.6915 0001462  83.2089 276.9101 15.83325045  1738

STARLINK-37574
1 69464U 26127X   26170.23142481 -.00726721  00000+0 -39152-2 0  9996
2 69464  53.1583 251.7674 0003619  11.3030 348.8073 15.81299100  1735

STARLINK-37583
1 69466U 26127Z   26170.22273193 -.00915898  00000+0 -47305-2 0  9996
2 69466  53.1585 251.7061 0001058  97.2584 262.8560 15.82692844  1730

STARLINK-37686
1 69470U 26127AD  26170.28138698 -.00892672  00000+0 -46093-2 0  9994
2 69470  53.1580 251.3580 0002701 157.6250 202.4892 15.82623440  1744

STARLINK-37707
1 69461U 26127U   26170.23905804  .00038290  00000+0  19586-3 0  9994
2 69461  53.1593 251.8169 0000658  65.2974 294.8117 15.80962970  1738

STARLINK-37708
1 69469U 26127AC  26170.22022087 -.00740371  00000+0 -37871-2 0  9992
2 69469  53.1582 251.6867 0002482 353.6001   6.4990 15.82449892  1730

STARLINK-37727
1 69481U 26131D   26168.75003472 -.01098784  37629-3 -26175-2 0  9994
2 69481  97.2819 188.9784 0001174  76.6396  45.7078 15.96671350  2108

STARLINK-37814
1 69482U 26131E   26168.75003472 -.01099082  37691-3 -26031-2 0  9997
2 69482  97.2821 188.9793 0001181  77.2384  46.9070 15.96778578  2109

STARLINK-37816
1 69478U 26131A   26168.75003472 -.01093379  37146-3 -26551-2 0  9997
2 69478  97.2824 188.9762 0001149  80.4448  35.9636 15.96316495  2106

STARLINK-37817
1 69480U 26131C   26168.75003472 -.01095329  37360-3 -26268-2 0  9990
2 69480  97.2822 188.9776 0001181  77.8521  42.4103 15.96547425  2101

STARLINK-37831
1 69489U 26131M   26168.41668981 -.00995223  31852-3 -21761-2 0  9998
2 69489  97.2813 188.6216 0000933  90.8599 290.4087 15.98221671  1312

STARLINK-37842
1 69487U 26131K   26168.83335648 -.01052755  34935-3 -24442-2 0  9992
2 69487  97.2817 189.0737 0001069  79.0004 173.2061 15.97137733  2111

STARLINK-37856
1 69491U 26131P   26168.83335648 -.01063313  35768-3 -24065-2 0  9995
2 69491  97.2816 189.0765 0001113  78.4450 181.6887 15.97605672  2171

STARLINK-37869
1 69483U 26131F   26168.75003472 -.01107172  38261-3 -26036-2 0  9997
2 69483  97.2820 188.9802 0001149  76.2430  50.1342 15.96910777  2103

STARLINK-37873
1 69484U 26131G   26168.75003472 -.01109103  38431-3 -25920-2 0  9994
2 69484  97.2820 188.9809 0001160  76.2701  51.9896 15.97024990  2102

STARLINK-37878
1 69479U 26131B   26168.41668981 -.00976144  30334-3 -22776-2 0  9999
2 69479  97.2817 188.6149 0000872  97.2660 265.8231 15.97036350  1316

STARLINK-37879
1 69490U 26131N   26168.83335648 -.01059963  35514-3 -24145-2 0  9998
2 69490  97.2816 189.0761 0001097  79.1630 178.9501 15.97486806  2117

STARLINK-37892
1 69485U 26131H   26168.75003472 -.01099303  37839-3 -25573-2 0  9990
2 69485  97.2819 188.9816 0001149  78.7411  50.8476 15.97108252  2107

STARLINK-37893
1 69486U 26131J   26168.75003472 -.01102657  38101-3 -25487-2 0  9995
2 69486  97.2818 188.9823 0001165  77.5835  53.9573 15.97225915  2186

TJS-25
1 69474U 26129A   26162.48255804  .00007407  00000+0  19774-2 0  9990
2 69474  16.5302  30.5351 7751889 199.9639  91.9387  1.72502163    78
